KUIPER-00592            
1 69277U 26118L   26169.74685051  .00018459  00000+0  49310-3 0  9995
2 69277  51.8706  45.6355 0003752 142.9729 217.1517 15.38133513  4224
KUIPER-00593            
1 69278U 26118M   26169.74760977  .00017743  00000+0  47507-3 0  9998
2 69278  51.8708  45.6398 0003985 161.8117 198.3013 15.38091179  4281
KUIPER-00594            
1 69279U 26118N   26169.73889360  .00021266  00000+0  55598-3 0  9990
2 69279  51.8717  45.5828 0000865  91.7470 268.3616 15.38703979  4225
KUIPER-00595            
1 69280U 26118P   26169.74122095  .00017563  00000+0  46356-3 0  9995
2 69280  51.8712  45.5987 0001539 155.9688 204.1371 15.38545098  4256
KUIPER-00596            
1 69281U 26118Q   26169.84544336  .00013274  00000+0  39785-3 0  9996
2 69281  51.8566  45.5201 0012592 191.2232 168.8474 15.34741459  4235
KUIPER-00597            
1 69282U 26118R   26169.75931124  .00010435  00000+0  29339-3 0  9992
2 69282  51.8650  45.7137 0007014 176.9950 183.1080 15.37058605  4229
KUIPER-00599            
1 69283U 26118S   26169.75606904  .00009690  00000+0  27060-3 0  9998
2 69283  51.8689  45.6952 0006131 171.3062 188.8032 15.37365769  4229
KUIPER-00600            
1 69284U 26118T   26169.76386535  .00006738  00000+0  19541-3 0  9990
2 69284  51.8643  45.7412 0008632 178.4625 181.6389 15.36711324  4220
KUIPER-00601            
1 69285U 26118U   26169.75231193  .00022035  00000+0  59467-3 0  9998
2 69285  51.8697  45.6714 0004812 160.4817 199.6354 15.37694430  4224
KUIPER-00602            
1 69286U 26118V   26169.74589612  .00012377  00000+0  33347-3 0  9997
2 69286  51.8702  45.6307 0002892 153.1840 206.9297 15.38214068  4225
KUIPER-00603            
1 69287U 26118W   26169.75368575  .00011540  00000+0  31771-3 0  9992
2 69287  51.8671  45.6798 0005444 166.1177 193.9960 15.37606867  4221
KUIPER-00605            
1 69288U 26118X   26169.82496547  .00012473  00000+0  34821-3 0  9997
2 69288  51.8663  45.4039 0007475 173.1619 186.9471 15.37082181  4231
KUIPER-00606            
1 69289U 26118Y   26169.75099013  .00016609  00000+0  45064-3 0  9993
2 69289  51.8691  45.6628 0004739 159.8379 200.2796 15.37728848  4229
KUIPER-00607            
1 69290U 26118Z   26169.75499516  .00017511  00000+0  47816-3 0  9997
2 69290  51.8676  45.6879 0006203 167.1902 192.9244 15.37482746  4223
KUIPER-00608            
1 69291U 26118AA  26169.83883882  .00013200  00000+0  39001-3 0  9998
2 69291  51.8613  45.4864 0008376 181.6021 178.4939 15.35239621  4234
KUIPER-00610            
1 69292U 26118AB  26169.74373507  .00012883  00000+0  34659-3 0  9997
2 69292  51.8721  45.6140 0002216 154.5824 205.5272 15.38219003  4227
KUIPER-00613            
1 69293U 26118AC  26169.51839818 -.00025348  00000+0 -73394-3 0  9996
2 69293  51.8648  47.0928 0009538 187.3139 172.7708 15.34637094  4187
KUIPER-00618            
1 69294U 26118AD  26169.73940469  .00018947  00000+0  49688-3 0  9990
2 69294  51.8721  45.5841 0001603 101.9306 258.1861 15.38687927  4228
KUIPER-00620            
1 69295U 26118AE  26169.74310419  .00018269  00000+0  48476-3 0  9999
2 69295  51.8712  45.6104 0002840 129.4209 230.7029 15.38351490  4228
STARLINK-37501          
1 69296U 26119A   26169.83335647 -.02371746  00000+0 -39260-1 0  9996
2 69296  97.2849 195.6767 0001357  90.5477 274.6832 15.55803074  4152
STARLINK-37496          
1 69297U 26119B   26169.83335647 -.02482490  00000+0 -38467-1 0  9994
2 69297  97.2851 195.6718 0001366 105.5189 253.4080 15.57747224  4155
STARLINK-37519          
1 69298U 26119C   26169.83335647 -.02185836  00000+0 -36561-1 0  9992
2 69298  97.2849 195.6840 0001434  71.1946 311.9164 15.55221922  4157
STARLINK-37455          
1 69299U 26119D   26169.83335647  .00040120  00000+0  73626-3 0  9990
2 69299  97.2856 195.5950 0001663  85.4552  98.3911 15.49162757  4151
STARLINK-37456          
1 69300U 26119E   26169.83335647 -.02446862  00000+0 -44045-1 0  9991
2 69300  97.2851 195.6810 0000562 159.8581 215.4282 15.53662429  4159
STARLINK-37630          
1 69301U 26119F   26169.83335647  .00025943  00000+0  47754-3 0  9993
2 69301  97.2846 195.5167 0000816  92.9446 268.5334 15.49163606  4310
STARLINK-37804          
1 69302U 26119G   26169.83335647  .00025825  00000+0  47536-3 0  9991
2 69302  97.2847 195.5137 0001347  92.9343 261.4866 15.49163628  4311
STARLINK-37730          
1 69303U 26119H   26169.83335647 -.00711119  00000+0 -93615-2 0  9990
2 69303  97.2855 195.7329 0001518  59.1384  84.2896 15.60702331  4313
STARLINK-37731          
1 69304U 26119J   26169.83335647  .00031062  00000+0  57110-3 0  9992
2 69304  97.2849 195.5112 0001062  80.0367 268.3834 15.49161454  4312
STARLINK-37734          
1 69305U 26119K   26169.83335647 -.02798210  00000+0 -49419-1 0  9993
2 69305  97.2846 195.6798 0000646 289.2161  85.2536 15.54066571  4318
STARLINK-37701          
1 69306U 26119L   26169.83335647 -.02515799  00000+0 -36498-1 0  9996
2 69306  97.2849 195.7287 0001694  66.0388  63.7626 15.59529562  4312
