OBJECT_NAME,OBJECT_ID,EPOCH,MEAN_MOTION,ECCENTRICITY,INCLINATION,RA_OF_ASC_NODE,ARG_OF_PERICENTER,MEAN_ANOMALY,EPHEMERIS_TYPE,CLASSIFICATION_TYPE,NORAD_CAT_ID,ELEMENT_SET_NO,REV_AT_EPOCH,BSTAR,MEAN_MOTION_DOT,MEAN_MOTION_DDOT
KUIPER-00592,2026-118L,2026-06-18T17:55:27.884064,15.38133513,.0003752,51.8706,45.6355,142.9729,217.1517,0,U,69277,999,422,.4931E-3,.18459E-3,0
KUIPER-00593,2026-118M,2026-06-18T17:56:33.484128,15.38091179,.0003985,51.8708,45.6398,161.8117,198.3013,0,U,69278,999,428,.47507E-3,.17743E-3,0
KUIPER-00594,2026-118N,2026-06-18T17:44:00.407040,15.38703979,.0000865,51.8717,45.5828,91.7470,268.3616,0,U,69279,999,422,.55598E-3,.21266E-3,0
KUIPER-00595,2026-118P,2026-06-18T17:47:21.490080,15.38545098,.0001539,51.8712,45.5987,155.9688,204.1371,0,U,69280,999,425,.46356E-3,.17563E-3,0
KUIPER-00596,2026-118Q,2026-06-18T20:17:26.306304,15.34741459,.0012592,51.8566,45.5201,191.2232,168.8474,0,U,69281,999,423,.39785E-3,.13274E-3,0
KUIPER-00597,2026-118R,2026-06-18T18:13:24.491136,15.37058605,.0007014,51.8650,45.7137,176.9950,183.1080,0,U,69282,999,422,.29339E-3,.10435E-3,0
KUIPER-00599,2026-118S,2026-06-18T18:08:44.365056,15.37365769,.0006131,51.8689,45.6952,171.3062,188.8032,0,U,69283,999,422,.2706E-3,.969E-4,0
KUIPER-00600,2026-118T,2026-06-18T18:19:57.966240,15.36711324,.0008632,51.8643,45.7412,178.4625,181.6389,0,U,69284,999,422,.19541E-3,.6738E-4,0
KUIPER-00601,2026-118U,2026-06-18T18:03:19.750752,15.37694430,.0004812,51.8697,45.6714,160.4817,199.6354,0,U,69285,999,422,.59467E-3,.22035E-3,0
KUIPER-00602,2026-118V,2026-06-18T17:54:05.424768,15.38214068,.0002892,51.8702,45.6307,153.1840,206.9297,0,U,69286,999,422,.33347E-3,.12377E-3,0
KUIPER-00603,2026-118W,2026-06-18T18:05:18.448800,15.37606867,.0005444,51.8671,45.6798,166.1177,193.9960,0,U,69287,999,422,.31771E-3,.1154E-3,0
KUIPER-00605,2026-118X,2026-06-18T19:47:57.016608,15.37082181,.0007475,51.8663,45.4039,173.1619,186.9471,0,U,69288,999,423,.34821E-3,.12473E-3,0
KUIPER-00606,2026-118Y,2026-06-18T18:01:25.547232,15.37728848,.0004739,51.8691,45.6628,159.8379,200.2796,0,U,69289,999,422,.45064E-3,.16609E-3,0
KUIPER-00607,2026-118Z,2026-06-18T18:07:11.581824,15.37482746,.0006203,51.8676,45.6879,167.1902,192.9244,0,U,69290,999,422,.47816E-3,.17511E-3,0
KUIPER-00608,2026-118AA,2026-06-18T20:07:55.674048,15.35239621,.0008376,51.8613,45.4864,181.6021,178.4939,0,U,69291,999,423,.39001E-3,.132E-3,0
KUIPER-00610,2026-118AB,2026-06-18T17:50:58.710048,15.38219003,.0002216,51.8721,45.6140,154.5824,205.5272,0,U,69292,999,422,.34659E-3,.12883E-3,0
KUIPER-00613,2026-118AC,2026-06-18T12:26:29.602752,15.34637094,.0009538,51.8648,47.0928,187.3139,172.7708,0,U,69293,999,418,-.73394E-3,-.25348E-3,0
KUIPER-00618,2026-118AD,2026-06-18T17:44:44.565216,15.38687927,.0001603,51.8721,45.5841,101.9306,258.1861,0,U,69294,999,422,.49688E-3,.18947E-3,0
KUIPER-00620,2026-118AE,2026-06-18T17:50:04.202016,15.38351490,.000284,51.8712,45.6104,129.4209,230.7029,0,U,69295,999,422,.48476E-3,.18269E-3,0
STARLINK-37501,2026-119A,2026-06-18T20:00:01.999008,15.55803074,.0001357,97.2849,195.6767,90.5477,274.6832,0,U,69296,999,415,-.3926E-1,-.2371746E-1,0
STARLINK-37496,2026-119B,2026-06-18T20:00:01.999008,15.57747224,.0001366,97.2851,195.6718,105.5189,253.4080,0,U,69297,999,415,-.38467E-1,-.248249E-1,0
STARLINK-37519,2026-119C,2026-06-18T20:00:01.999008,15.55221922,.0001434,97.2849,195.6840,71.1946,311.9164,0,U,69298,999,415,-.36561E-1,-.2185836E-1,0
STARLINK-37455,2026-119D,2026-06-18T20:00:01.999008,15.49162757,.0001663,97.2856,195.5950,85.4552,98.3911,0,U,69299,999,415,.73626E-3,.4012E-3,0
STARLINK-37456,2026-119E,2026-06-18T20:00:01.999008,15.53662429,.0000562,97.2851,195.6810,159.8581,215.4282,0,U,69300,999,415,-.44045E-1,-.2446862E-1,0
STARLINK-37630,2026-119F,2026-06-18T20:00:01.999008,15.49163606,.0000816,97.2846,195.5167,92.9446,268.5334,0,U,69301,999,431,.47754E-3,.25943E-3,0
STARLINK-37804,2026-119G,2026-06-18T20:00:01.999008,15.49163628,.0001347,97.2847,195.5137,92.9343,261.4866,0,U,69302,999,431,.47536E-3,.25825E-3,0
STARLINK-37730,2026-119H,2026-06-18T20:00:01.999008,15.60702331,.0001518,97.2855,195.7329,59.1384,84.2896,0,U,69303,999,431,-.93615E-2,-.711119E-2,0
STARLINK-37731,2026-119J,2026-06-18T20:00:01.999008,15.49161454,.0001062,97.2849,195.5112,80.0367,268.3834,0,U,69304,999,431,.5711E-3,.31062E-3,0
STARLINK-37734,2026-119K,2026-06-18T20:00:01.999008,15.54066571,.0000646,97.2846,195.6798,289.2161,85.2536,0,U,69305,999,431,-.49419E-1,-.279821E-1,0
STARLINK-37701,2026-119L,2026-06-18T20:00:01.999008,15.59529562,.0001694,97.2849,195.7287,66.0388,63.7626,0,U,69306,999,431,-.36498E-1,-.2515799E-1,0
